STARLINK-35536          
1 66261U 25245AD  26044.94997274  .00031785  00000+0  10804-2 0  9994
2 66261  53.1601  34.0315 0001544  92.2159 267.9018 15.30210424 17628
STARLINK-35487          
1 66262U 25245AE  26044.36741546  .00028486  00000+0  97052-3 0  9995
2 66262  53.1599  36.7935 0001227  81.8489 278.2651 15.30189806 17481
STARLINK-35801          
1 66265U 25247A   26044.69364098  .00024721  00000+0  84331-3 0  9993
2 66265  53.1605 302.6325 0001433 103.5505 256.5656 15.30227086 17364
STARLINK-35056          
1 66266U 25247B   26044.90963970  .00024265  00000+0  82887-3 0  9999
2 66266  53.1598 301.8471 0001147  64.3971 295.7148 15.30194146 17396
STARLINK-35550          
1 66267U 25247C   26044.04154535  .00028469  00000+0  96994-3 0  9998
2 66267  53.1601 305.6280 0001541  61.0113 299.1042 15.30190009 17263
STARLINK-35069          
1 66268U 25247D   26044.93707406  .00013345  00000+0  46190-3 0  9998
2 66268  53.1582 302.0172 0001165  88.1610 271.9524 15.30198362 17394
STARLINK-34910          
1 66269U 25247E   26044.91068304  .00025864  00000+0  88187-3 0  9995
2 66269  53.1605 301.8013 0001185 119.6155 240.4964 15.30216734 17391
STARLINK-35757          
1 66270U 25247F   26044.90013554  .00016281  00000+0  56081-3 0  9994
2 66270  53.1619 301.7826 0001154 126.8499 233.2608 15.30187805 17443
STARLINK-35745          
1 66271U 25247G   26044.92863063  .00013088  00000+0  45314-3 0  9994
2 66271  53.1575 301.9630 0000956 102.8573 257.2534 15.30206573 17444
STARLINK-35741          
1 66272U 25247H   26044.94645863  .00014011  00000+0  48422-3 0  9993
2 66272  53.1591 301.3626 0001161  92.2428 267.8706 15.30204692 17451
STARLINK-35730          
1 66273U 25247J   26044.04577172  .00027695  00000+0  94375-3 0  9992
2 66273  53.1609 305.6939 0001318  81.1105 279.0045 15.30199085 17314
STARLINK-35760          
1 66274U 25247K   26044.93285151  .00022796  00000+0  77956-3 0  9997
2 66274  53.1576 301.9885 0001402  99.2943 260.8216 15.30194406 17399
STARLINK-35752          
1 66275U 25247L   26044.92441063  .00019195  00000+0  65834-3 0  9994
2 66275  53.1582 301.9343 0001376  83.4907 276.6250 15.30208913 17393
STARLINK-35742          
1 66276U 25247M   26044.91491377  .00018220  00000+0  62594-3 0  9995
2 66276  53.1593 301.8752 0001153 107.3442 252.7685 15.30191812 17444
STARLINK-35708          
1 66277U 25247N   26044.90541399  .00037111  00000+0  12579-2 0  9992
2 66277  53.1601 301.8132 0001961 139.2104 220.9044 15.30223957 17445
STARLINK-35713          
1 66278U 25247P   26044.94223645  .00018215  00000+0  62543-3 0  9999
2 66278  53.1578 301.3324 0000982 102.7621 257.3489 15.30209047 17450
