[{"OBJECT_NAME":"STARLINK-35536","OBJECT_ID":"2025-245AD","EPOCH":"2026-02-13T22:47:57.644736","MEAN_MOTION":15.30210424,"ECCENTRICITY":0.00015441,"INCLINATION":53.1601,"RA_OF_ASC_NODE":34.0315,"ARG_OF_PERICENTER":92.2159,"MEAN_ANOMALY":267.9018,"EPHEMERIS_TYPE":0,"CLASSIFICATION_TYPE":"U","NORAD_CAT_ID":66261,"ELEMENT_SET_NO":999,"REV_AT_EPOCH":1762,"BSTAR":0.0010803526,"MEAN_MOTION_DOT":0.00031785,"MEAN_MOTION_DDOT":0},{"OBJECT_NAME":"STARLINK-35487","OBJECT_ID":"2025-245AE","EPOCH":"2026-02-13T08:49:04.695744","MEAN_MOTION":15.30189806,"ECCENTRICITY":0.00012274,"INCLINATION":53.1599,"RA_OF_ASC_NODE":36.7935,"ARG_OF_PERICENTER":81.8489,"MEAN_ANOMALY":278.2651,"EPHEMERIS_TYPE":0,"CLASSIFICATION_TYPE":"U","NORAD_CAT_ID":66262,"ELEMENT_SET_NO":999,"REV_AT_EPOCH":1748,"BSTAR":0.00097051838,"MEAN_MOTION_DOT":0.00028486,"MEAN_MOTION_DDOT":0},{"OBJECT_NAME":"STARLINK-35801","OBJECT_ID":"2025-247A","EPOCH":"2026-02-13T16:38:50.580672","MEAN_MOTION":15.30227086,"ECCENTRICITY":0.00014333,"INCLINATION":53.1605,"RA_OF_ASC_NODE":302.6325,"ARG_OF_PERICENTER":103.5505,"MEAN_ANOMALY":256.5656,"EPHEMERIS_TYPE":0,"CLASSIFICATION_TYPE":"U","NORAD_CAT_ID":66265,"ELEMENT_SET_NO":999,"REV_AT_EPOCH":1736,"BSTAR":0.00084330845,"MEAN_MOTION_DOT":0.00024721,"MEAN_MOTION_DDOT":0},{"OBJECT_NAME":"STARLINK-35056","OBJECT_ID":"2025-247B","EPOCH":"2026-02-13T21:49:52.870080","MEAN_MOTION":15.30194146,"ECCENTRICITY":0.00011474,"INCLINATION":53.1598,"RA_OF_ASC_NODE":301.8471,"ARG_OF_PERICENTER":64.3971,"MEAN_ANOMALY":295.7148,"EPHEMERIS_TYPE":0,"CLASSIFICATION_TYPE":"U","NORAD_CAT_ID":66266,"ELEMENT_SET_NO":999,"REV_AT_EPOCH":1739,"BSTAR":0.00082886899,"MEAN_MOTION_DOT":0.00024265,"MEAN_MOTION_DDOT":0},{"OBJECT_NAME":"STARLINK-35550","OBJECT_ID":"2025-247C","EPOCH":"2026-02-13T00:59:49.518240","MEAN_MOTION":15.30190009,"ECCENTRICITY":0.00015416,"INCLINATION":53.1601,"RA_OF_ASC_NODE":305.628,"ARG_OF_PERICENTER":61.0113,"MEAN_ANOMALY":299.1042,"EPHEMERIS_TYPE":0,"CLASSIFICATION_TYPE":"U","NORAD_CAT_ID":66267,"ELEMENT_SET_NO":999,"REV_AT_EPOCH":1726,"BSTAR":0.00096994499,"MEAN_MOTION_DOT":0.00028469,"MEAN_MOTION_DDOT":0},{"OBJECT_NAME":"STARLINK-35069","OBJECT_ID":"2025-247D","EPOCH":"2026-02-13T22:29:23.198784","MEAN_MOTION":15.30198362,"ECCENTRICITY":0.00011652,"INCLINATION":53.1582,"RA_OF_ASC_NODE":302.0172,"ARG_OF_PERICENTER":88.161,"MEAN_ANOMALY":271.9524,"EPHEMERIS_TYPE":0,"CLASSIFICATION_TYPE":"U","NORAD_CAT_ID":66268,"ELEMENT_SET_NO":999,"REV_AT_EPOCH":1739,"BSTAR":0.00046190388,"MEAN_MOTION_DOT":0.00013345,"MEAN_MOTION_DDOT":0},{"OBJECT_NAME":"STARLINK-34910","OBJECT_ID":"2025-247E","EPOCH":"2026-02-13T21:51:23.014656","MEAN_MOTION":15.30216734,"ECCENTRICITY":0.0001185,"INCLINATION":53.1605,"RA_OF_ASC_NODE":301.8013,"ARG_OF_PERICENTER":119.6155,"MEAN_ANOMALY":240.4964,"EPHEMERIS_TYPE":0,"CLASSIFICATION_TYPE":"U","NORAD_CAT_ID":66269,"ELEMENT_SET_NO":999,"REV_AT_EPOCH":1739,"BSTAR":0.00088187359,"MEAN_MOTION_DOT":0.00025864,"MEAN_MOTION_DDOT":0},{"OBJECT_NAME":"STARLINK-35757","OBJECT_ID":"2025-247F","EPOCH":"2026-02-13T21:36:11.710656","MEAN_MOTION":15.30187805,"ECCENTRICITY":0.00011542,"INCLINATION":53.1619,"RA_OF_ASC_NODE":301.7826,"ARG_OF_PERICENTER":126.8499,"MEAN_ANOMALY":233.2608,"EPHEMERIS_TYPE":0,"CLASSIFICATION_TYPE":"U","NORAD_CAT_ID":66270,"ELEMENT_SET_NO":999,"REV_AT_EPOCH":1744,"BSTAR":0.00056081269,"MEAN_MOTION_DOT":0.00016281,"MEAN_MOTION_DDOT":0},{"OBJECT_NAME":"STARLINK-35745","OBJECT_ID":"2025-247G","EPOCH":"2026-02-13T22:17:13.686432","MEAN_MOTION":15.30206573,"ECCENTRICITY":9.566e-5,"INCLINATION":53.1575,"RA_OF_ASC_NODE":301.963,"ARG_OF_PERICENTER":102.8573,"MEAN_ANOMALY":257.2534,"EPHEMERIS_TYPE":0,"CLASSIFICATION_TYPE":"U","NORAD_CAT_ID":66271,"ELEMENT_SET_NO":999,"REV_AT_EPOCH":1744,"BSTAR":0.00045313776,"MEAN_MOTION_DOT":0.00013088,"MEAN_MOTION_DDOT":0},{"OBJECT_NAME":"STARLINK-35741","OBJECT_ID":"2025-247H","EPOCH":"2026-02-13T22:42:54.025632","MEAN_MOTION":15.30204692,"ECCENTRICITY":0.00011613,"INCLINATION":53.1591,"RA_OF_ASC_NODE":301.3626,"ARG_OF_PERICENTER":92.2428,"MEAN_ANOMALY":267.8706,"EPHEMERIS_TYPE":0,"CLASSIFICATION_TYPE":"U","NORAD_CAT_ID":66272,"ELEMENT_SET_NO":999,"REV_AT_EPOCH":1745,"BSTAR":0.00048421881,"MEAN_MOTION_DOT":0.00014011,"MEAN_MOTION_DDOT":0},{"OBJECT_NAME":"STARLINK-35730","OBJECT_ID":"2025-247J","EPOCH":"2026-02-13T01:05:54.676608","MEAN_MOTION":15.30199085,"ECCENTRICITY":0.00013189,"INCLINATION":53.1609,"RA_OF_ASC_NODE":305.6939,"ARG_OF_PERICENTER":81.1105,"MEAN_ANOMALY":279.0045,"EPHEMERIS_TYPE":0,"CLASSIFICATION_TYPE":"U","NORAD_CAT_ID":66273,"ELEMENT_SET_NO":999,"REV_AT_EPOCH":1731,"BSTAR":0.00094374834,"MEAN_MOTION_DOT":0.00027695,"MEAN_MOTION_DDOT":0},{"OBJECT_NAME":"STARLINK-35760","OBJECT_ID":"2025-247K","EPOCH":"2026-02-13T22:23:18.370464","MEAN_MOTION":15.30194406,"ECCENTRICITY":0.00014026,"INCLINATION":53.1576,"RA_OF_ASC_NODE":301.9885,"ARG_OF_PERICENTER":99.2943,"MEAN_ANOMALY":260.8216,"EPHEMERIS_TYPE":0,"CLASSIFICATION_TYPE":"U","NORAD_CAT_ID":66274,"ELEMENT_SET_NO":999,"REV_AT_EPOCH":1739,"BSTAR":0.00077955977,"MEAN_MOTION_DOT":0.00022796,"MEAN_MOTION_DDOT":0},{"OBJECT_NAME":"STARLINK-35752","OBJECT_ID":"2025-247L","EPOCH":"2026-02-13T22:11:09.078432","MEAN_MOTION":15.30208913,"ECCENTRICITY":0.0001376,"INCLINATION":53.1582,"RA_OF_ASC_NODE":301.9343,"ARG_OF_PERICENTER":83.4907,"MEAN_ANOMALY":276.625,"EPHEMERIS_TYPE":0,"CLASSIFICATION_TYPE":"U","NORAD_CAT_ID":66275,"ELEMENT_SET_NO":999,"REV_AT_EPOCH":1739,"BSTAR":0.00065834355,"MEAN_MOTION_DOT":0.00019195,"MEAN_MOTION_DDOT":0},{"OBJECT_NAME":"STARLINK-35742","OBJECT_ID":"2025-247M","EPOCH":"2026-02-13T21:57:28.549728","MEAN_MOTION":15.30191812,"ECCENTRICITY":0.00011536,"INCLINATION":53.1593,"RA_OF_ASC_NODE":301.8752,"ARG_OF_PERICENTER":107.3442,"MEAN_ANOMALY":252.7685,"EPHEMERIS_TYPE":0,"CLASSIFICATION_TYPE":"U","NORAD_CAT_ID":66276,"ELEMENT_SET_NO":999,"REV_AT_EPOCH":1744,"BSTAR":0.00062594198,"MEAN_MOTION_DOT":0.0001822,"MEAN_MOTION_DDOT":0},{"OBJECT_NAME":"STARLINK-35708","OBJECT_ID":"2025-247N","EPOCH":"2026-02-13T21:43:47.768736","MEAN_MOTION":15.30223957,"ECCENTRICITY":0.00019618,"INCLINATION":53.1601,"RA_OF_ASC_NODE":301.8132,"ARG_OF_PERICENTER":139.2104,"MEAN_ANOMALY":220.9044,"EPHEMERIS_TYPE":0,"CLASSIFICATION_TYPE":"U","NORAD_CAT_ID":66277,"ELEMENT_SET_NO":999,"REV_AT_EPOCH":1744,"BSTAR":0.0012578977,"MEAN_MOTION_DOT":0.00037111,"MEAN_MOTION_DDOT":0},{"OBJECT_NAME":"STARLINK-35713","OBJECT_ID":"2025-247P","EPOCH":"2026-02-13T22:36:49.229280","MEAN_MOTION":15.30209047,"ECCENTRICITY":9.826e-5,"INCLINATION":53.1578,"RA_OF_ASC_NODE":301.3324,"ARG_OF_PERICENTER":102.7621,"MEAN_ANOMALY":257.3489,"EPHEMERIS_TYPE":0,"CLASSIFICATION_TYPE":"U","NORAD_CAT_ID":66278,"ELEMENT_SET_NO":999,"REV_AT_EPOCH":1745,"BSTAR":0.00062543321,"MEAN_MOTION_DOT":0.00018215,"MEAN_MOTION_DDOT":0}]
